[{"OBJECT_NAME":"STARLINK-34528","OBJECT_ID":"2025-133H","EPOCH":"2026-03-09T10:48:59.064768","MEAN_MOTION":15.30170743,"ECCENTRICITY":0.00013093,"INCLINATION":53.16,"RA_OF_ASC_NODE":117.7817,"ARG_OF_PERICENTER":68.2412,"MEAN_ANOMALY":291.8728,"EPHEMERIS_TYPE":0,"CLASSIFICATION_TYPE":"U","NORAD_CAT_ID":64479,"ELEMENT_SET_NO":999,"REV_AT_EPOCH":4113,"BSTAR":0.00027991027,"MEAN_MOTION_DOT":7.932e-5,"MEAN_MOTION_DDOT":0},{"OBJECT_NAME":"FENGYUN 1C DEB","OBJECT_ID":"1999-025DFV","EPOCH":"2026-03-08T16:36:39.334752","MEAN_MOTION":14.7561826,"ECCENTRICITY":0.02801674,"INCLINATION":99.0493,"RA_OF_ASC_NODE":138.4817,"ARG_OF_PERICENTER":72.5853,"MEAN_ANOMALY":290.5777,"EPHEMERIS_TYPE":0,"CLASSIFICATION_TYPE":"U","NORAD_CAT_ID":33684,"ELEMENT_SET_NO":999,"REV_AT_EPOCH":94255,"BSTAR":0.0012457497,"MEAN_MOTION_DOT":0.00016208,"MEAN_MOTION_DDOT":0}]
